{"type":"FeatureCollection","features":[{"type":"Feature","properties":{"KATO":"711110000","ADM1_EN":"Astana","ADM1_KK":"Астана","ADM1_RU":"город Астана","ADM1_PCODE":"KZ71","ADM2_EN":"Almaty","ADM2_KK":"Алматы ауданы","ADM2_RU":"район Алматы","ADM2_PCODE":"KZ711110","type":"district"},"geometry":{"type":"MultiPolygon","coordinates":[[[[71.6241562,51.1836311],[71.62399310671441,51.183970317373635],[71.62388209094483,51.18420118286519],[71.62187079894503,51.188579398004],[71.60472779967,51.19363679937537],[71.59362788255281,51.1969110669885],[71.58789658776567,51.198601676850735],[71.58348469323774,51.202603687206064],[71.58306228277415,51.2034180674107],[71.58306226722952,51.20341809738459],[71.5814209,51.2032871],[71.5800261,51.2027628],[71.5775049,51.2012704],[71.5758204,51.2006183],[71.5746939,51.1999595],[71.5720653,51.1988502],[71.56863210000002,51.1967325],[71.5635681,51.1954282],[71.5629458,51.1952802],[71.5626132,51.1949239],[71.5618622,51.1946079],[71.5610576,51.1936061],[71.5602744,51.1932027],[71.55918,51.1927925],[71.5580213,51.1920596],[71.5578845,51.1913309],[71.5570369,51.1908401],[71.5539768,51.1901954],[71.5521958,51.1898054],[71.550093,51.1896978],[71.5492346,51.1900878],[71.547797,51.190034],[71.5460804,51.1896574],[71.544471,51.1890657],[71.5425184,51.1889447],[71.5409734,51.188595],[71.5395572,51.1873846],[71.5384414,51.1859724],[71.5377333,51.1852999],[71.53672480000002,51.1845064],[71.5352013,51.183807],[71.5339139,51.1834707],[71.5333774,51.1829058],[71.5332916,51.1822736],[71.5337637,51.1811976],[71.5333989,51.1807268],[71.5313819,51.1803636],[71.5310385,51.1800408],[71.5298369,51.1795565],[71.5283778,51.1791126],[71.5271118,51.1792337],[71.5253406,51.1789965],[71.5248373,51.1786687],[71.5239603,51.1782423],[71.5226154,51.1789793],[71.521674,51.1795027],[71.5208333,51.1798979],[71.5198559,51.1802686],[71.5160295,51.1817206],[71.5151658,51.1820081],[71.5145108,51.1821797],[71.512269,51.1825713],[71.5115958,51.1826487],[71.5107187,51.1826907],[71.5097504,51.182684],[71.509513,51.182699],[71.5090879,51.182726],[71.50875,51.1827579],[71.5080392,51.1828403],[71.5077683,51.1828739],[71.5075642,51.182911],[71.5070012,51.1830135],[71.5068188,51.1830505],[71.5061911,51.1832136],[71.505044,51.1835412],[71.5048576,51.183559],[71.5043955,51.1829916],[71.502447,51.1809697],[71.4994204,51.1778042],[71.4980847,51.1763567],[71.4977602,51.17577],[71.497114,51.1758572],[71.4954188,51.1758303],[71.4946034,51.1756151],[71.4929726,51.1747675],[71.4920929,51.1739335],[71.4916449,51.1726575],[71.4907441,51.1724339],[71.4902522,51.1722153],[71.4895564,51.1720299],[71.4879086,51.1710813],[71.4863755,51.1697996],[71.4861703,51.1695694],[71.4853429,51.1688799],[71.484194,51.1682949],[71.4837798,51.1682354],[71.482746,51.1683558],[71.4821393,51.1683424],[71.4815701,51.168118],[71.4808599,51.1677968],[71.4804231,51.1674775],[71.4796506,51.1666971],[71.47897780000001,51.1657966],[71.4781852,51.1648001],[71.4780315,51.1646173],[71.4778408,51.1643075],[71.4777505,51.1642138],[71.4776428,51.1641376],[71.4774517,51.1640984],[71.476698,51.1639829],[71.4758748,51.163898],[71.4750342,51.163861],[71.4745202,51.1637891],[71.4740165,51.1636562],[71.4731238,51.1630659],[71.4728738,51.1627087],[71.4727209,51.1624364],[71.4724674,51.1620835],[71.4719151,51.1616043],[71.470359,51.1610423],[71.4701898,51.1609337],[71.470001,51.1607866],[71.4696453,51.1603735],[71.4689185,51.159954],[71.4671053,51.1590221],[71.4653995,51.1581609],[71.4595844,51.1555096],[71.4549925,51.1546012],[71.4546814,51.1542378],[71.4536514,51.153935],[71.4536192,51.153659],[71.4531364,51.1533226],[71.4523854,51.153114],[71.4516236,51.1530467],[71.4504006,51.1527707],[71.4476325,51.1519363],[71.4456906,51.1508393],[71.44427440000001,51.1500384],[71.4431371,51.1494193],[71.4407553,51.1484569],[71.438473,51.1475427],[71.4398128,51.1469824],[71.4410144,51.1457978],[71.4414007,51.1447478],[71.4417011,51.142217],[71.4417869,51.1404938],[71.4460587,51.1339627],[71.4471723,51.13226],[71.44751079295548,51.13113545188173],[71.4540016,51.130083],[71.4555975,51.1298059],[71.4578732,51.1294324],[71.4580272,51.1294079],[71.4582067,51.1293858],[71.4584682,51.1293381],[71.458548,51.1293256],[71.4600483,51.1290901],[71.4601148,51.1290797],[71.4635832,51.1285354],[71.4638328,51.1284962],[71.4640039,51.1284694],[71.465454,51.1282418],[71.4685553,51.1277725],[71.4698699,51.1275764],[71.4699046,51.1275695],[71.4702537,51.1275148],[71.470522,51.1274716],[71.4707984,51.127427],[71.471168,51.1273674],[71.4731447,51.1270666],[71.4749192,51.1267967],[71.4752836,51.1267319],[71.4761116,51.1265854],[71.4763367,51.1265456],[71.4765866,51.1265069],[71.4768673,51.1264634],[71.4772463,51.1264047],[71.481368,51.1257754],[71.4816833,51.1257252],[71.4834057,51.1254504],[71.4838585,51.1254268],[71.4842296,51.1254324],[71.4845146,51.1254504],[71.4850606,51.1255301],[71.4856173,51.1256604],[71.4862203,51.1258268],[71.4864384,51.1258828],[71.4866995,51.1259499],[71.486864,51.1259914],[71.4870952,51.1260567],[71.4876496,51.1262133],[71.491038,51.1272441],[71.4912308,51.1272929],[71.4915237,51.1273671],[71.4960458,51.1286232],[71.4962778,51.1287073],[71.4970018,51.1289184],[71.4971563,51.1289634],[71.4973052,51.1290008],[71.4975152,51.1290553],[71.4982591,51.1292486],[71.5015417,51.1301579],[71.5047728,51.131053],[71.5056437,51.1312854],[71.5095424,51.1324483],[71.5105744,51.1327253],[71.5118235,51.1330764],[71.5132854,51.1335131],[71.5141883,51.1337829],[71.5143637,51.1338353],[71.5146778,51.1339159],[71.5176358,51.1347525],[71.5184145,51.1349727],[71.5187827,51.1350777],[71.5191972,51.1352118],[71.5194764,51.1353347],[71.5197718,51.1354935],[71.5200455,51.1356657],[71.5202979,51.1358661],[71.5209179,51.1364427],[71.5210586,51.1365921],[71.5215512,51.1371154],[71.5216587,51.1372257],[71.5219154,51.1374873],[71.5225328,51.1381165],[71.5239956,51.139646],[71.5244504,51.1398121],[71.525745,51.1392981],[71.5267998,51.1389007],[71.5282512,51.138354],[71.528537,51.1382463],[71.528726,51.1381802],[71.529453,51.1379258],[71.5302997,51.1376418],[71.5314022,51.1373038],[71.53224,51.1370687],[71.5323946,51.1370253],[71.5334191,51.136767],[71.5351,51.1364292],[71.5366578,51.1361675],[71.5388334,51.1359044],[71.5394127,51.1358451],[71.5410414,51.1357483],[71.5418263,51.1357016],[71.5423923,51.1356945],[71.5426484,51.1356932],[71.5431497,51.1356939],[71.5435717,51.1356928],[71.5446089,51.1357331],[71.5451281,51.1357629],[71.5464898,51.1358646],[71.5478093,51.1359875],[71.5490314,51.13608],[71.5501313,51.1361398],[71.5509683,51.1361755],[71.5518107,51.1361907],[71.5529538,51.1362111],[71.5548361,51.1362498],[71.5565686,51.1362894],[71.5578406,51.1363097],[71.5580051,51.1363149],[71.5589439,51.1363193],[71.5603177,51.1363002],[71.5610989,51.1362765],[71.5619012,51.1362192],[71.5632592,51.136117],[71.5638486,51.1360647],[71.564507,51.1359969],[71.5651939,51.1359091],[71.5661643,51.1357901],[71.5671188,51.1356437],[71.5672989,51.1356161],[71.5682584,51.135465],[71.5691449,51.1353139],[71.5700235,51.1351641],[71.5712655,51.1349507],[71.5722742,51.134774],[71.5776798,51.1338086],[71.5885188,51.1319542],[71.5904193,51.1316582],[71.5907737,51.1316012],[71.5911377,51.1315339],[71.5914616,51.1314754],[71.5940955,51.1309999],[71.5985169,51.1302474],[71.5992599,51.1301322],[71.6000757,51.1299731],[71.6007571,51.1298789],[71.6030203,51.129496],[71.603312,51.1294466],[71.6098034,51.1283408],[71.6121622,51.127946],[71.612429,51.1278929],[71.615483,51.1273704],[71.6199977,51.1265988],[71.6209446,51.1264419],[71.6253307,51.1256925],[71.6264865,51.1254959],[71.6335819,51.1242819],[71.6356706,51.1238873],[71.6380352,51.1234457],[71.6443125,51.1222548],[71.6458934,51.1219373],[71.6476755,51.1215121],[71.6480844,51.1213959],[71.6554396,51.1194233],[71.6584139,51.1185904],[71.6624008,51.1174369],[71.664261,51.1168919],[71.6659282,51.1164137],[71.6677293,51.1159565],[71.6825158,51.112443],[71.6836679,51.1121692],[71.6840065,51.112088],[71.6846705,51.1119287],[71.6859934,51.1116113],[71.6873959,51.1112748],[71.6894166,51.1107899],[71.6903532,51.1105638],[71.7004908,51.1081003],[71.7020982,51.107675],[71.705114,51.1130112],[71.70520245842943,51.11299257994015],[71.71123856672111,51.124444779757965],[71.71489597551131,51.13138395353781],[71.71409626693676,51.131480776809816],[71.7136581,51.1315338],[71.71105880000002,51.1320939],[71.70220311886612,51.135590744797376],[71.69211838584758,51.1395728731984],[71.68896788092444,51.140444063874334],[71.68490159246483,51.140571785729286],[71.6758455430411,51.140232723526196],[71.6732943,51.1401372],[71.6732372,51.1410352],[71.6453858,51.1399259],[71.6445511214979,51.14081400648061],[71.64312208089561,51.142334463799536],[71.63076848568282,51.169310772894995],[71.62760098129574,51.176171264597365],[71.62727295483457,51.176881696235974],[71.6271111,51.1772322],[71.62640864092432,51.17875350041873],[71.62571139083947,51.180263482663584],[71.62560036825484,51.180503817008514],[71.625535,51.1806453],[71.6245923,51.1826868],[71.6241562,51.1836311]]]]}},{"type":"Feature","properties":{"KATO":"711210000","ADM1_EN":"Astana","ADM1_KK":"Астана","ADM1_RU":"город Астана","ADM1_PCODE":"KZ71","ADM2_EN":"Yesil","ADM2_KK":"Есіл ауданы","ADM2_RU":"район Есиль","ADM2_PCODE":"KZ711210","type":"district"},"geometry":{"type":"Polygon","coordinates":[[[71.3809658,51.013064],[71.38087013896255,51.012970438107565],[71.38093070280524,51.012968905362165],[71.38143890494597,51.00858876200733],[71.38157002703002,51.010232635420216],[71.38178918339283,51.01298036825274],[71.3817891972961,51.01298036610132],[71.3817892,51.01298039999999],[71.4003795,51.0101037],[71.402951,51.0090634],[71.40880036275907,51.008071755629324],[71.41443981626547,51.00711573108672],[71.43564861145805,51.0039225218954],[71.43721028299598,51.00300600007539],[71.4373207,51.0029412],[71.4374100638963,51.00299515505313],[71.43831860823664,51.00354371573927],[71.44352378864176,51.00260360649616],[71.45419338764158,51.00067660223201],[71.45474838165873,51.00490556496209],[71.45718590090185,51.00695190172257],[71.45971131222419,51.012316223343554],[71.46250418735019,51.016587775848706],[71.46894699828728,51.01981679673069],[71.4691386184997,51.01967393531226],[71.47402310812926,51.02239611551425],[71.47564599967633,51.02157909938217],[71.4788614991005,51.024141515544294],[71.47756172216123,51.0249965183702],[71.49242689297958,51.034362686611296],[71.50155292603868,51.03916410297682],[71.49802813016471,51.04258794243871],[71.50258689024692,51.04546598141089],[71.53418020942316,51.047189717950836],[71.54016971058304,51.047969981578774],[71.5401697,51.04797],[71.54563806430095,51.048682354345196],[71.54575740024362,51.04869790046383],[71.54770110102591,51.05091090195346],[71.55370714717836,51.049442183132],[71.5559378,51.0488967],[71.5598184,51.0530965],[71.56193281250631,51.055013663662095],[71.56444281790637,51.05728953408275],[71.5716283759385,51.063409140675496],[71.5797424,51.0703195],[71.58714843940108,51.07405607213372],[71.58829570313789,51.074634905966164],[71.60378351365561,51.085779525948105],[71.60786249435594,51.09053690232734],[71.5992148,51.0941028],[71.5877938,51.0971889],[71.5328273,51.1028375],[71.52868180510133,51.10328843637874],[71.52491521575868,51.10341747179166],[71.5243569,51.1033687],[71.52375042890542,51.103280684215775],[71.5199565,51.1019996],[71.5189968,51.1017618],[71.5174073,51.101276],[71.51657397703791,51.101108453325054],[71.5157282,51.1008608],[71.5143870621673,51.10082222830507],[71.5142664,51.100812],[71.51414929689325,51.10081539007459],[71.5129466,51.1007808],[71.5106789,51.1011631],[71.50822332411288,51.101901866347966],[71.5074053,51.1021257],[71.5057975689475,51.10256011729389],[71.5050326,51.1027323],[71.5036046,51.1030625],[71.5031239,51.1032669],[71.5012979,51.1034815],[71.5000993,51.1033457],[71.4981861,51.102942],[71.4970516,51.1026631],[71.49657223546252,51.102486032416856],[71.4949974,51.1018192],[71.49270664827331,51.10081997205495],[71.4923399,51.1006486],[71.4911395,51.1000876],[71.49080510599347,51.100025842685994],[71.4897235,51.0996292],[71.48914623180463,51.099719474712344],[71.4889509,51.0996834],[71.4819127,51.1007075],[71.48108252773801,51.100900885488024],[71.4802141,51.101018],[71.47950892348655,51.10126745064571],[71.479252,51.1013273],[71.4759046,51.1025669],[71.4740163,51.1046688],[71.4727718,51.1051807],[71.471656,51.1054502],[71.4705831,51.1054233],[71.4600688,51.1056119],[71.4568931,51.10607],[71.4539749,51.1070939],[71.4517862,51.1081986],[71.4511159,51.1088851],[71.4507562,51.1096805],[71.4504558,51.1124018],[71.4501125,51.1152037],[71.4459377,51.1198661],[71.4458502,51.1199958],[71.4458137,51.1201219],[71.4458328,51.1202597],[71.4463034,51.1215905],[71.44635038964071,51.12166130835572],[71.4463788,51.1218036],[71.44651652508317,51.1218136528713],[71.4465487,51.1218356],[71.4467888,51.1219146],[71.4478737,51.1222083],[71.4484086,51.1223913],[71.4505294,51.1233142],[71.4511571,51.1236282],[71.451604,51.1239233],[71.4520424,51.1243418],[71.452322,51.1247561],[71.4525506,51.1253446],[71.45255404199884,51.12537518621736],[71.4523012,51.1264634],[71.4509708,51.1276754],[71.4489538,51.1288065],[71.44880766830327,51.12900255552562],[71.4487669,51.1290339],[71.4485116,51.1292935],[71.447477,51.1305687],[71.4473857,51.1307401],[71.4473624,51.1308902],[71.447389,51.1311552],[71.44751079295548,51.13113545188173],[71.4471723,51.13226],[71.4460587,51.1339627],[71.4417869,51.1404938],[71.4417011,51.142217],[71.4414007,51.1447478],[71.4410144,51.1457978],[71.4398128,51.1469824],[71.438473,51.1475427],[71.43801030000002,51.1477362],[71.43783870000001,51.1483554],[71.4358646,51.1495937],[71.4331609,51.1500514],[71.4310581,51.1502667],[71.4293414,51.1510205],[71.4284929,51.1517003],[71.4282592,51.1519283],[71.4281278,51.1519941],[71.4279034,51.1521741],[71.4248049,51.1491419],[71.4230907,51.1475369],[71.4164002,51.1380377],[71.4142222,51.1337765],[71.413448,51.1251801],[71.4114417,51.1116876],[71.3982282,51.0766895],[71.3926426,51.063065],[71.3815018,51.029868],[71.3801494,51.0225134],[71.3809658,51.013064]]]}},{"type":"Feature","properties":{"KATO":"711310000","ADM1_EN":"Astana","ADM1_KK":"Астана","ADM1_RU":"город Астана","ADM1_PCODE":"KZ71","ADM2_EN":"Saryarka","ADM2_KK":"Сарыарқа ауданы","ADM2_RU":"район Сарыарка","ADM2_PCODE":"KZ711310","type":"district"},"geometry":{"type":"Polygon","coordinates":[[[71.25224394898211,51.23473596138256],[71.2455992,51.2261646],[71.24549340211009,51.226028134968374],[71.2454581031756,51.22598259911008],[71.2482154,51.2252099],[71.2482153892742,51.225209881341165],[71.24821539005929,51.22520988112115],[71.2475386797252,51.22403264529132],[71.247249789421,51.22353007990734],[71.24681400462624,51.222728189612056],[71.2462091,51.2216151],[71.24427218652474,51.219525734199756],[71.24389169712495,51.21911529453827],[71.2414884034984,51.21597029476911],[71.24152895678782,51.215909658684375],[71.24154073444473,51.2158920648446],[71.24204631803038,51.215137034258404],[71.24204629047634,51.21513701422334],[71.2420463,51.215137],[71.24154765083514,51.21477444393334],[71.24125890419937,51.21456449080723],[71.24138444423262,51.214289672754944],[71.24144402749033,51.21415926008103],[71.24054429441934,51.21376208182767],[71.24053641092155,51.21373641077396],[71.2404729534016,51.2135296562652],[71.24072355370706,51.21337258250595],[71.2408308,51.2133054],[71.2408307951093,51.213305364670084],[71.24083081838619,51.21330535008037],[71.24077072746246,51.212871441059384],[71.2407455,51.2126892],[71.24074548892507,51.21268919674745],[71.24074548558092,51.21268917259973],[71.24013259883635,51.21250919761013],[71.24013218774718,51.21250835332455],[71.24005452398846,51.21234881232348],[71.24030930593159,51.21219531197442],[71.2406025,51.2120187],[71.24088007987632,51.21194073085378],[71.24117395260429,51.211858213649975],[71.24113410647598,51.211682305150866],[71.2411313,51.2116699],[71.24113129612414,51.21166989830494],[71.24113129386888,51.21166988834862],[71.2406717588652,51.21146891974566],[71.24070480685957,51.211315013035794],[71.24114982349441,51.21125015684168],[71.24110221540292,51.21107072927152],[71.24110220769346,51.211070728995956],[71.2411022,51.2110707],[71.2407756608186,51.21105905702456],[71.24043188378498,51.21104676918471],[71.24012599049543,51.21090168193732],[71.23961930536957,51.21093157253808],[71.2396569,51.2107393],[71.2400554,51.2106501],[71.24006821644276,51.210520670791766],[71.24007060195986,51.21049662442819],[71.24007059760207,51.21049662421595],[71.2400706,51.2104966],[71.23944243564404,51.210466001736236],[71.23944334261843,51.210276847901376],[71.2394436,51.2102252],[71.239817,51.2102181],[71.2399044,51.2102164],[71.23990432595515,51.21021636358028],[71.23990438027515,51.21021636251314],[71.23918569698559,51.20986289427104],[71.23906519655716,51.210056993456796],[71.23881825021009,51.21004797861812],[71.23877230003892,51.21004630000142],[71.23859231643866,51.20968253124265],[71.23859231555866,51.209682531445786],[71.2385923,51.2096825],[71.23816536700237,51.20978108690626],[71.23812979863055,51.20978929739722],[71.23803254243668,51.20976449104193],[71.23746612352488,51.20962000600085],[71.23770213647063,51.209329430730705],[71.2378128,51.2091932],[71.23781279505019,51.20919318970145],[71.23781279724084,51.20919318700436],[71.23770119341805,51.20896099210833],[71.2376577,51.2088705],[71.23765769813124,51.20887049893934],[71.23765768428132,51.20887047012418],[71.2373055010585,51.208670596757564],[71.23730703750329,51.208665890232226],[71.23737980909824,51.20844301729262],[71.23777805804012,51.208493891061764],[71.2381655,51.20854339999999],[71.2394938269858,51.20779118571055],[71.2398687024979,51.20757890474767],[71.24156181501917,51.2075436285461],[71.24193458589129,51.20731453731347],[71.2427788,51.2067958],[71.2427787501448,51.20679574509058],[71.2427787787274,51.20679572752477],[71.24257559881335,51.206571987859604],[71.24256336390312,51.2064468153166],[71.24254831668176,51.206292731706895],[71.24254830262423,51.20629272684797],[71.2425483,51.2062927],[71.24127982450013,51.20585428288958],[71.24046019784882,51.20557098249475],[71.24043523874846,51.20536787728589],[71.2404013126715,51.205091711713806],[71.24097576773389,51.20424175982541],[71.2416175,51.2032923],[71.24161749028181,51.20329228034971],[71.24161750290412,51.20329226167401],[71.24139906105523,51.20285061370601],[71.2413949,51.2028422],[71.24139489956528,51.20284219996299],[71.24139489303182,51.202842186753585],[71.2406513968667,51.2027788938294],[71.2405078,51.2024961],[71.24050779859768,51.20249609846259],[71.24050778207693,51.20249606592742],[71.24044159111786,51.2024235133233],[71.24002301867357,51.20196462047237],[71.24029365958157,51.201579870800316],[71.2404463,51.2013629],[71.24133558576318,51.20098815745896],[71.2417446036705,51.20081580697802],[71.24343390875129,51.200028516637545],[71.24381007162772,51.19976967729097],[71.2446283,51.1992067],[71.24462827497501,51.199206667932415],[71.24462829164742,51.19920665646006],[71.24451033653455,51.19905553896824],[71.2444652,51.1989977],[71.2444068,51.1989329],[71.24467919194136,51.19862829977924],[71.244811890608,51.198479931921135],[71.24481187821087,51.19847992436553],[71.2448119,51.1984799],[71.2445303,51.1983083],[71.2438459759248,51.19828819738863],[71.24330139225471,51.19827218527386],[71.2429649285484,51.19810515053929],[71.2424363,51.1978427],[71.24217475408716,51.197703028883694],[71.2427619019806,51.19724260184242],[71.2431643,51.1969271],[71.2448762015776,51.19666484799414],[71.24562720798143,51.19654981517533],[71.246515302365,51.19608866127832],[71.2476022,51.19552429999999],[71.2487677,51.1950114],[71.2492164,51.1937445],[71.2500851,51.1933317],[71.25088413202093,51.19339631078079],[71.25141331275982,51.19343912426173],[71.25196170319916,51.192606206083035],[71.25295906546158,51.19251435349054],[71.2529590235366,51.1925143070453],[71.2529591,51.1925143],[71.25174574846504,51.19117021932368],[71.25138591374528,51.19077158801577],[71.2519026,51.1903211],[71.2524136251715,51.19034970951732],[71.25288681246053,51.19037623497254],[71.25315365191327,51.191125163752375],[71.25317489852132,51.19118479718813],[71.25317489901657,51.19118479723982],[71.2531749,51.1911848],[71.25325767675211,51.19119343727347],[71.25437191990515,51.19130973784958],[71.25480474369114,51.1907854274608],[71.2551966,51.1903108],[71.2551124,51.1898031],[71.25571531686501,51.18949577661745],[71.25572920067103,51.18948870127605],[71.25711431669389,51.19038513174329],[71.25809431997793,51.190223806343816],[71.2585294,51.1901522],[71.25909181407606,51.19018753904403],[71.26009859477213,51.190250824064535],[71.2599575,51.1909003],[71.25995755076893,51.190900334128514],[71.25995754845503,51.19090034478054],[71.26023299868268,51.191085509214005],[71.2601602,51.1915947],[71.26016025715211,51.191594736096846],[71.26016025701735,51.191594737039765],[71.26017961533897,51.19160696258225],[71.2605489,51.1918402],[71.2608273,51.1921802],[71.2617444,51.1917272],[71.26200391966935,51.19081402907424],[71.26232741986546,51.189675837772626],[71.2634694007142,51.189763709518516],[71.2645475,51.1898467],[71.2648113,51.1896218],[71.26481126776046,51.18962176826258],[71.26481128093982,51.18962175702628],[71.26464577454257,51.18945885258451],[71.2643747,51.189192],[71.26463339430677,51.18908619195294],[71.26492310871517,51.188967716571],[71.26538681096056,51.189082120840126],[71.2660631081188,51.18952951543637],[71.26655491158112,51.18968442201926],[71.26702071513006,51.18957672876667],[71.26712116581437,51.189158635717725],[71.2672272,51.1887174],[71.2680569,51.1888247],[71.26875938568894,51.18922219659408],[71.2693357119546,51.18954832272878],[71.26967608716335,51.18929162956735],[71.2701558,51.1889299],[71.27028056277238,51.18888349547407],[71.27035611020037,51.18885541939373],[71.27038657088806,51.18886860024739],[71.2704362,51.1888901],[71.27049379517555,51.18893549673355],[71.27051080490537,51.188948909326236],[71.27052597765825,51.18896017872106],[71.2706669,51.1890649],[71.27073323821378,51.18918205466962],[71.27073400773635,51.18918341470857],[71.27077490226854,51.18924350431269],[71.27078489919936,51.18924569887042],[71.2709427,51.1892804],[71.2710215,51.1892793],[71.27110351075277,51.18923499855113],[71.2711683194066,51.189200036896175],[71.27123035341721,51.1892060345525],[71.2712773,51.1892106],[71.27132297022955,51.18926196283606],[71.27134790801497,51.189290015237845],[71.27140880260899,51.18932866172448],[71.2714651,51.1893644],[71.2715994010987,51.1893808172482],[71.27163285528131,51.18938491004057],[71.27179159468655,51.189362262428496],[71.2718243,51.1893576],[71.2719923,51.1892572],[71.2721056,51.1891861],[71.2722103356094,51.18917017528746],[71.2722424051503,51.18916530979197],[71.27227152995017,51.189161068491444],[71.2723849,51.1891446],[71.27244907274249,51.1891300642278],[71.27250411489376,51.18911762831589],[71.27257050849018,51.189044116141396],[71.2726057035626,51.18893150677331],[71.2726371861689,51.1888903800033],[71.2726995,51.188809],[71.27273625136364,51.18879797835256],[71.27279721169296,51.18877972223089],[71.27303160534645,51.18870621016471],[71.27305458743388,51.18869279338848],[71.2731722,51.1886242],[71.273224,51.1885068],[71.27322398839483,51.18850674459011],[71.27322398846884,51.18850674442229],[71.27319960602141,51.18839031144781],[71.2731996013169,51.18839030628771],[71.2731996,51.1883903],[71.2756612,51.1884707],[71.279834,51.1883187],[71.2862313,51.1890722],[71.2899896,51.1892443],[71.2921001,51.1891863],[71.2936957,51.1883776],[71.295635,51.1876735],[71.2969975,51.1868307],[71.2972705,51.1856596],[71.2991516,51.1832579],[71.3010178,51.1829548],[71.3028875,51.1823899],[71.3044311,51.1821264],[71.305213,51.1819986],[71.3056241,51.1820071],[71.3062917,51.1821074],[71.3067426,51.1822756],[71.3070324,51.1823429],[71.3072096,51.1823496],[71.3075907,51.182316],[71.3077914,51.1822566],[71.3078711,51.1822209],[71.3079432,51.1821377],[71.30797160000002,51.1820069],[71.3080001,51.1818617],[71.3080874,51.1817332],[71.3082089,51.1816475],[71.3083341,51.1816142],[71.3085049,51.1816047],[71.3086719,51.1816594],[71.308763,51.181688],[71.3088845,51.1816904],[71.3091122,51.1816666],[71.3092679,51.1816118],[71.3093703,51.1815643],[71.30945,51.1815333],[71.309488,51.1814643],[71.3094842,51.1813763],[71.3094766,51.1812954],[71.3093703,51.1811896],[71.3092944,51.1810646],[71.3092565,51.1809623],[71.309302,51.1808433],[71.3093248,51.1807291],[71.3093589,51.1805959],[71.3093817,51.1804745],[71.3093855,51.1803865],[71.3094083,51.1802675],[71.3095108,51.1801795],[71.3095943,51.1801414],[71.3097157,51.1800891],[71.3097917,51.1800486],[71.3098372,51.1799856],[71.3098638,51.1799297],[71.3099852,51.1798654],[71.3100877,51.1798797],[71.3101579,51.1799511],[71.310194,51.1800296],[71.3103002,51.1800915],[71.3104597,51.1800772],[71.3107861,51.180001],[71.3109,51.1799653],[71.3111771,51.1799677],[71.3114086,51.1800105],[71.3116667,51.1800106],[71.3117122,51.1799356],[71.3116629,51.179863],[71.3115338,51.1797797],[71.3113327,51.179637],[71.3113061,51.179518],[71.31142,51.17943239999999],[71.3115794,51.1794109],[71.3118375,51.1794228],[71.3120804,51.1794371],[71.3123803,51.1794966],[71.3125473,51.1795704],[71.3126687,51.1795727],[71.312794,51.1796084],[71.3129496,51.1796536],[71.3132495,51.1796465],[71.3134658,51.1796346],[71.3137201,51.1796798],[71.3139479,51.1797488],[71.3141187,51.1798107],[71.314392,51.1798678],[71.3147374,51.1798583],[71.3149309,51.1797607],[71.3151549,51.1795727],[71.3152498,51.1793491],[71.3152649,51.1792253],[71.3152801,51.1790588],[71.3155117,51.1789065],[71.3158191,51.1788327],[71.3161531,51.178778],[71.3166693,51.1786876],[71.3170603,51.1785805],[71.3172528,51.1784619],[71.3173451,51.1783752],[71.317378,51.1782223],[71.3173385,51.1780901],[71.3173451,51.1779785],[71.31741760000001,51.1779289],[71.3175758,51.1779454],[71.3176615,51.1779578],[71.3178394,51.1780921],[71.3180504,51.1782471],[71.3182217,51.178276],[71.3183931,51.178214],[71.3187425,51.1780611],[71.3190523,51.1778793],[71.3192764,51.1777223],[71.3194016,51.1776396],[71.3194741,51.1775405],[71.3195334,51.1774578],[71.3196257,51.1773504],[71.3198103,51.1772884],[71.3199619,51.1772843],[71.3201267,51.1773215],[71.3202453,51.1773793],[71.3203574,51.1774578],[71.3204299,51.1775901],[71.3204694,51.1777099],[71.3205419,51.1778339],[71.3206276,51.1779],[71.3207463,51.1779],[71.3209176,51.1778876],[71.3211747,51.1778504],[71.3214054,51.1777636],[71.3214845,51.1776355],[71.321557,51.1773876],[71.3216756,51.177181],[71.3218404,51.1769826],[71.3220052,51.1768958],[71.3225391,51.1768091],[71.322889,51.1767092],[71.3230568,51.1766888],[71.3232293,51.1767121],[71.3233877,51.1767764],[71.3235322,51.1768612],[71.3235975,51.1769722],[71.323672,51.1771592],[71.3236953,51.1773287],[71.323947,51.1775653],[71.3244597,51.1777202],[71.3249817,51.177767],[71.3256342,51.1777991],[71.3265711,51.1778166],[71.3271117,51.1775274],[71.3274451,51.1772676],[71.32762310000001,51.1767469],[71.327544,51.1763048],[71.3270496,51.1760072],[71.326753,51.1756808],[71.3269771,51.1753543],[71.3277088,51.1746725],[71.3282427,51.1742799],[71.3283943,51.174222],[71.32890180000001,51.1742551],[71.3296664,51.1742179],[71.3299301,51.1740939],[71.3305299,51.1738708],[71.3309452,51.17354429999999],[71.3309715,51.1730566],[71.331086,51.1726789],[71.3319467,51.1729151],[71.3323709,51.1730093],[71.332738,51.1731604],[71.3330485,51.1734978],[71.3334721,51.1737982],[71.3339745,51.1741316],[71.3342458,51.1742352],[71.334464,51.1742632],[71.3350722,51.1742766],[71.3354204,51.1742825],[71.335859,51.1743593],[71.3361071,51.1743202],[71.3364085,51.1742959],[71.3366237,51.174186],[71.3374804,51.1744009],[71.33840730000001,51.1743364],[71.3393686,51.1743041],[71.3403128,51.1742126],[71.3410853,51.1740135],[71.3417376,51.1737552],[71.342716,51.1732709],[71.3430851,51.1731471],[71.3443983,51.1727704],[71.3454283,51.1723291],[71.3460034,51.1719632],[71.3466299,51.1715111],[71.3475912,51.1711183],[71.3479517,51.1708115],[71.3480375,51.1702949],[71.3480805,51.1699343],[71.3483551,51.1695738],[71.3488358,51.1690302],[71.3490933,51.1686696],[71.3491791,51.1683736],[71.3495396,51.1679538],[71.3499087,51.167674],[71.3505352,51.1673511],[71.3532303,51.1661293],[71.35465510000002,51.1658602],[71.3559168,51.1652897],[71.3562172,51.1648376],[71.3567579,51.1643209],[71.3574703,51.163745],[71.3580883,51.1635028],[71.358878,51.1633951],[71.3597878,51.163492],[71.3610066,51.1636912],[71.3619936,51.1640141],[71.3626373,51.164407],[71.3630236,51.1650367],[71.3636673,51.165575],[71.3641136,51.1658764],[71.3647745,51.1664792],[71.3653753,51.1671896],[71.3658302,51.1678785],[71.3663195,51.1684705],[71.366843,51.1686804],[71.3675898,51.168928],[71.3683622,51.16905709999999],[71.3689888,51.1690356],[71.3695639,51.1689387],[71.3700789,51.1687342],[71.3706196,51.1684974],[71.3712805,51.1683037],[71.3720101,51.1681583],[71.3727825,51.1680776],[71.3732803,51.1679054],[71.3741558,51.167378],[71.374585,51.1670389],[71.3749454,51.1668371],[71.3754829,51.1643855],[71.3765669,51.1643791],[71.3777261,51.16414289999999],[71.3792027,51.1640559],[71.3797767,51.1640269],[71.3804684,51.164026],[71.381014,51.1639442],[71.3816983,51.163893],[71.3823758,51.1637575],[71.3841529,51.1636716],[71.3852249,51.163454],[71.386261,51.1635622],[71.3869199,51.1635518],[71.3876443,51.1634674],[71.3882378,51.1633281],[71.3887923,51.1632367],[71.3915544,51.1632634],[71.3921491,51.1632232],[71.393582,51.1631313],[71.3939375,51.163124],[71.3942056,51.1630985],[71.3944503,51.1630838],[71.3948698,51.1630646],[71.3953117,51.1630294],[71.3959455,51.162483],[71.3972037,51.1613187],[71.3976168,51.1609565],[71.3978329,51.1607684],[71.3979845,51.1603646],[71.3990306,51.1596778],[71.4022407,51.1582998],[71.4066781,51.1573524],[71.4093646,51.1572124],[71.4154586,51.1588596],[71.4193296,51.1604207],[71.4217843,51.160243],[71.4235908,51.1594186],[71.4247066,51.1584497],[71.425522,51.1568886],[71.4263374,51.1553543],[71.4274961,51.152501],[71.4281278,51.1519941],[71.4282592,51.1519283],[71.4314606,51.1541774],[71.4312247,51.1542778],[71.4309285,51.154477],[71.4306573,51.1547232],[71.4303968,51.155012],[71.4302993,51.155159],[71.4302164,51.1553311],[71.430076,51.1557793],[71.4240578,51.1772034],[71.436409,51.178585],[71.4368266,51.1786253],[71.4386134,51.1789311],[71.4397804,51.1792411],[71.4406902,51.1795552],[71.4415408,51.1799396],[71.4424111,51.1804273],[71.44310340000001,51.180882],[71.4435583,51.181225],[71.4443758,51.1819483],[71.4448769,51.1824566],[71.4464288,51.1843738],[71.4367954,51.1873606],[71.4257274,51.1907706],[71.4133828,51.1946866],[71.3968465,51.1999671],[71.3757781,51.2066531],[71.3728843,51.2075658],[71.3696148,51.2086162],[71.3671834,51.2094181],[71.3644571,51.2107509],[71.3632482,51.2116113],[71.3623737,51.2124338],[71.3609984,51.213959],[71.3596626,51.2155871],[71.3586869,51.2166369],[71.3583411,51.2169909],[71.3561092,51.2186249],[71.355266,51.2190623],[71.3543658,51.2194545],[71.3533894,51.2198832],[71.3261989,51.2284526],[71.3033993,51.236127],[71.3031793,51.236201],[71.29530093904668,51.23897088238566],[71.27318648228189,51.246745866390974],[71.26774189374692,51.24101038813505],[71.25723828151926,51.24117836492917],[71.25224394898211,51.23473596138256]]]}},{"type":"Feature","properties":{"KATO":"711410000","ADM1_EN":"Astana","ADM1_KK":"Астана","ADM1_RU":"город Астана","ADM1_PCODE":"KZ71","ADM2_EN":"Baikonyr","ADM2_KK":"Байқоңыр ауданы","ADM2_RU":"район Байқоңыр","ADM2_PCODE":"KZ711410","type":"district"},"geometry":{"type":"MultiPolygon","coordinates":[[[[71.3800602887695,51.30155129896852],[71.3787962,51.3013562],[71.37495712234464,51.30074970430832],[71.35676168594215,51.29787517341852],[71.35655523100104,51.297842736928565],[71.356548,51.2978416],[71.3555829,51.2976899],[71.3587823,51.2890938],[71.3642122,51.2757097],[71.36583589960169,51.27233194934756],[71.3663796157081,51.27120089287297],[71.36579501520544,51.27108965512519],[71.3631331,51.2705831],[71.3470602,51.2676346],[71.34670021373428,51.268052859866266],[71.34615889017424,51.26868178139667],[71.34218929758856,51.2673794954335],[71.34193479052041,51.26771418197599],[71.3409233,51.2690443],[71.33889915022937,51.268369761535986],[71.33827179702983,51.26816069437567],[71.33500098418337,51.267070670047836],[71.32156551089733,51.255341781094835],[71.3194656,51.2535086],[71.3152385,51.2492645],[71.3031793,51.236201],[71.3033993,51.236127],[71.3261989,51.2284526],[71.3533894,51.2198832],[71.3543658,51.2194545],[71.355266,51.2190623],[71.3561092,51.2186249],[71.3583411,51.2169909],[71.3586869,51.2166369],[71.3596626,51.2155871],[71.3609984,51.213959],[71.3623737,51.2124338],[71.3632482,51.2116113],[71.3644571,51.2107509],[71.3671834,51.2094181],[71.3696148,51.2086162],[71.3728843,51.2075658],[71.3757781,51.2066531],[71.3968465,51.1999671],[71.4133828,51.1946866],[71.4257274,51.1907706],[71.4367954,51.1873606],[71.4464288,51.1843738],[71.4448769,51.1824566],[71.4443758,51.1819483],[71.4435583,51.181225],[71.44310340000001,51.180882],[71.4424111,51.1804273],[71.4415408,51.1799396],[71.4406902,51.1795552],[71.4397804,51.1792411],[71.4386134,51.1789311],[71.4368266,51.1786253],[71.436409,51.178585],[71.4240578,51.1772034],[71.430076,51.1557793],[71.4302164,51.1553311],[71.4302993,51.155159],[71.4303968,51.155012],[71.4306573,51.1547232],[71.4309285,51.154477],[71.4312247,51.1542778],[71.4314606,51.1541774],[71.4282592,51.1519283],[71.4284929,51.1517003],[71.4293414,51.1510205],[71.4310581,51.1502667],[71.4331609,51.1500514],[71.4358646,51.1495937],[71.43783870000001,51.1483554],[71.43801030000002,51.1477362],[71.438473,51.1475427],[71.4407553,51.1484569],[71.4431371,51.1494193],[71.44427440000001,51.1500384],[71.4456906,51.1508393],[71.4476325,51.1519363],[71.4504006,51.1527707],[71.4516236,51.1530467],[71.4523854,51.153114],[71.4531364,51.1533226],[71.4536192,51.153659],[71.4536514,51.153935],[71.4546814,51.1542378],[71.4549925,51.1546012],[71.4595844,51.1555096],[71.4653995,51.1581609],[71.4671053,51.1590221],[71.4689185,51.159954],[71.4696453,51.1603735],[71.470001,51.1607866],[71.4701898,51.1609337],[71.470359,51.1610423],[71.4719151,51.1616043],[71.4724674,51.1620835],[71.4727209,51.1624364],[71.4728738,51.1627087],[71.4731238,51.1630659],[71.4740165,51.1636562],[71.4745202,51.1637891],[71.4750342,51.163861],[71.4758748,51.163898],[71.476698,51.1639829],[71.4774517,51.1640984],[71.4776428,51.1641376],[71.4777505,51.1642138],[71.4778408,51.1643075],[71.4780315,51.1646173],[71.4781852,51.1648001],[71.47897780000001,51.1657966],[71.4796506,51.1666971],[71.4804231,51.1674775],[71.4808599,51.1677968],[71.4815701,51.168118],[71.4821393,51.1683424],[71.482746,51.1683558],[71.4837798,51.1682354],[71.484194,51.1682949],[71.4853429,51.1688799],[71.4861703,51.1695694],[71.4863755,51.1697996],[71.4879086,51.1710813],[71.4895564,51.1720299],[71.4902522,51.1722153],[71.4907441,51.1724339],[71.4916449,51.1726575],[71.4920929,51.1739335],[71.4929726,51.1747675],[71.4946034,51.1756151],[71.4954188,51.1758303],[71.497114,51.1758572],[71.4977602,51.17577],[71.4980847,51.1763567],[71.4994204,51.1778042],[71.502447,51.1809697],[71.5043955,51.1829916],[71.5048576,51.183559],[71.505044,51.1835412],[71.5061911,51.1832136],[71.5068188,51.1830505],[71.5070012,51.1830135],[71.5075642,51.182911],[71.5077683,51.1828739],[71.5080392,51.1828403],[71.50875,51.1827579],[71.5090879,51.182726],[71.509513,51.182699],[71.5097504,51.182684],[71.5107187,51.1826907],[71.5115958,51.1826487],[71.512269,51.1825713],[71.5145108,51.1821797],[71.5151658,51.1820081],[71.5160295,51.1817206],[71.5198559,51.1802686],[71.5208333,51.1798979],[71.521674,51.1795027],[71.5226154,51.1789793],[71.5239603,51.1782423],[71.5248373,51.1786687],[71.5253406,51.1789965],[71.5271118,51.1792337],[71.5283778,51.1791126],[71.5298369,51.1795565],[71.5310385,51.1800408],[71.5313819,51.1803636],[71.5333989,51.1807268],[71.5337637,51.1811976],[71.5332916,51.1822736],[71.5333774,51.1829058],[71.5339139,51.1834707],[71.5352013,51.183807],[71.53672480000002,51.1845064],[71.5377333,51.1852999],[71.5384414,51.1859724],[71.5395572,51.1873846],[71.5409734,51.188595],[71.5425184,51.1889447],[71.544471,51.1890657],[71.5460804,51.1896574],[71.547797,51.190034],[71.5492346,51.1900878],[71.550093,51.1896978],[71.5521958,51.1898054],[71.5539768,51.1901954],[71.5570369,51.1908401],[71.5578845,51.1913309],[71.5580213,51.1920596],[71.55918,51.1927925],[71.5602744,51.1932027],[71.5610576,51.1936061],[71.5618622,51.1946079],[71.5626132,51.1949239],[71.5629458,51.1952802],[71.5635681,51.1954282],[71.56863210000002,51.1967325],[71.5720653,51.1988502],[71.5746939,51.1999595],[71.5758204,51.2006183],[71.5775049,51.2012704],[71.5800261,51.2027628],[71.5814209,51.2032871],[71.58306226722952,51.20341809738459],[71.5798923094304,51.20953055894287],[71.5776411,51.2138714],[71.57457687460212,51.21979913137916],[71.5742749099609,51.22038327611793],[71.57427491175886,51.22038327725253],[71.5742749,51.2203833],[71.5744613,51.2205009],[71.57549940066626,51.22115615385086],[71.57758200415198,51.22247070784986],[71.57818767342204,51.222852978970245],[71.580762,51.2244778],[71.5962112,51.2342272],[71.61545872264911,51.24638962159054],[71.61879499870504,51.24849780157002],[71.6164777,51.2513073],[71.61459479615519,51.25358998198915],[71.6114776887772,51.257368878820905],[71.60904798168397,51.26031416543821],[71.6090181549568,51.26038494380609],[71.6090102,51.2604038],[71.6061563,51.26716469999999],[71.606075,51.2672616],[71.59973660623402,51.27276696093896],[71.59428588698678,51.27750125243046],[71.5941335260882,51.27763352152731],[71.5941188,51.2776463],[71.5904056427578,51.27451381706443],[71.58436069664025,51.269414193660246],[71.58274940689043,51.26805466157998],[71.5766996,51.2629501],[71.56693961150464,51.257481106446605],[71.56598581573277,51.25288302971365],[71.56598580283206,51.25288301365279],[71.5659858,51.252883],[71.56405168055454,51.2504751119505],[71.56250838745487,51.248553776301236],[71.559499619724,51.24852877928536],[71.5586844,51.248522],[71.55826283755954,51.24806210006939],[71.55699758980157,51.24668178073164],[71.55505838592002,51.24692727339748],[71.55308639415315,51.244142054814084],[71.5522356,51.2429404],[71.52614181865549,51.248886707208634],[71.50335989470122,51.25407828998415],[71.49928629618351,51.254960889059525],[71.4695494,51.2614037],[71.46954947902955,51.26140376437248],[71.46954946605265,51.2614037671841],[71.47074004200482,51.26237352179543],[71.4724675,51.2637806],[71.48337123028331,51.272153917947904],[71.48610830453529,51.27425580856777],[71.49833530038288,51.28364321479885],[71.4983849,51.2855603],[71.4985021,51.2901088],[71.49595584543368,51.28961282930417],[71.49087878732817,51.28862387607548],[71.47734748756034,51.286628276507614],[71.47588179791443,51.28641209606125],[71.47340120413128,51.28373557027932],[71.4685046,51.2784522],[71.46434046568832,51.27687732220565],[71.45039038623058,51.27160137397125],[71.42813528812184,51.27465457754201],[71.41996157260824,51.27238078931443],[71.4137661,51.2706573],[71.4089439,51.2694867],[71.40646762480833,51.268885583237065],[71.40256084627079,51.26793719329599],[71.40149647727279,51.26767882282603],[71.4001119,51.2673427],[71.3956978,51.2775755],[71.3898001,51.2912475],[71.38797069668799,51.29555490300449],[71.38509398854237,51.302328178347665],[71.3800602887695,51.30155129896852]]],[[[71.6927267,51.3488937],[71.69507298053456,51.35110168168194],[71.69250983606139,51.351071537943696],[71.68386816771141,51.35094283935122],[71.67490297755235,51.34476764584355],[71.6678132,51.3398842],[71.64154166655828,51.331670520809155],[71.64452622815251,51.32837095295512],[71.65131131787504,51.32151713362869],[71.65795533845056,51.31718837234381],[71.65800444717252,51.31717158623337],[71.6580344,51.3171614],[71.6665497,51.3130184],[71.66714119374996,51.312607861885134],[71.66773692490581,51.31219444686237],[71.66883827388678,51.31142994809782],[71.6703576,51.3103754],[71.6718742,51.3094308],[71.67335915513739,51.31052376348082],[71.67421758208533,51.311155612385896],[71.6704333,51.313772],[71.6707503,51.3139846],[71.67262532290836,51.315220191453015],[71.6732981567442,51.31566358857371],[71.67161459907338,51.3165757403566],[71.67161463812964,51.31657577934079],[71.6716146,51.3165758],[71.67228258453092,51.31724249322582],[71.67249402104832,51.31745353959374],[71.67876041285575,51.32173592417649],[71.68013191989112,51.32271468181308],[71.6842449,51.3256499],[71.6866021,51.3288876],[71.68861072048196,51.33022730090054],[71.69383074055801,51.33370897622201],[71.6941792365234,51.333527968639636],[71.69632173151687,51.33474958136864],[71.6973656,51.3353448],[71.6990471,51.3378711],[71.69926495663287,51.33812161020141],[71.69992110454162,51.338876108532574],[71.70391073420593,51.342828567749905],[71.70413742976818,51.34327757188504],[71.70632383207568,51.34760810308357],[71.70113478353413,51.349765969077616],[71.6977359586044,51.34658712224676],[71.69272671241028,51.348893667709476],[71.69272673137299,51.3488936855545],[71.6927267,51.3488937]]]]}},{"type":"Feature","properties":{"KATO":"711510000","ADM1_EN":"Astana","ADM1_KK":"Астана","ADM1_RU":"город Астана","ADM1_PCODE":"KZ71","ADM2_EN":"Nura","ADM2_KK":"Нұра ауданы","ADM2_RU":"район Нұра","ADM2_PCODE":"KZ711510","type":"district"},"geometry":{"type":"Polygon","coordinates":[[[71.4263374,51.1553543],[71.425522,51.1568886],[71.4247066,51.1584497],[71.4235908,51.1594186],[71.4217843,51.160243],[71.4193296,51.1604207],[71.4154586,51.1588596],[71.4093646,51.1572124],[71.4066781,51.1573524],[71.4022407,51.1582998],[71.3990306,51.1596778],[71.3979845,51.1603646],[71.3978329,51.1607684],[71.3976168,51.1609565],[71.3972037,51.1613187],[71.3959455,51.162483],[71.3953117,51.1630294],[71.3948698,51.1630646],[71.3944503,51.1630838],[71.3942056,51.1630985],[71.3939375,51.163124],[71.393582,51.1631313],[71.3921491,51.1632232],[71.3915544,51.1632634],[71.3887923,51.1632367],[71.3882378,51.1633281],[71.3876443,51.1634674],[71.3869199,51.1635518],[71.386261,51.1635622],[71.3852249,51.163454],[71.3841529,51.1636716],[71.3823758,51.1637575],[71.3816983,51.163893],[71.381014,51.1639442],[71.3804684,51.164026],[71.3797767,51.1640269],[71.3792027,51.1640559],[71.3777261,51.16414289999999],[71.3765669,51.1643791],[71.3754829,51.1643855],[71.3749454,51.1668371],[71.374585,51.1670389],[71.3741558,51.167378],[71.3732803,51.1679054],[71.3727825,51.1680776],[71.3720101,51.1681583],[71.3712805,51.1683037],[71.3706196,51.1684974],[71.3700789,51.1687342],[71.3695639,51.1689387],[71.3689888,51.1690356],[71.3683622,51.16905709999999],[71.3675898,51.168928],[71.366843,51.1686804],[71.3663195,51.1684705],[71.3658302,51.1678785],[71.3653753,51.1671896],[71.3647745,51.1664792],[71.3641136,51.1658764],[71.3636673,51.165575],[71.3630236,51.1650367],[71.3626373,51.164407],[71.3619936,51.1640141],[71.3610066,51.1636912],[71.3597878,51.163492],[71.358878,51.1633951],[71.3580883,51.1635028],[71.3574703,51.163745],[71.3567579,51.1643209],[71.3562172,51.1648376],[71.3559168,51.1652897],[71.35465510000002,51.1658602],[71.3532303,51.1661293],[71.3505352,51.1673511],[71.3499087,51.167674],[71.3495396,51.1679538],[71.3491791,51.1683736],[71.3490933,51.1686696],[71.3488358,51.1690302],[71.3483551,51.1695738],[71.3480805,51.1699343],[71.3480375,51.1702949],[71.3479517,51.1708115],[71.3475912,51.1711183],[71.3466299,51.1715111],[71.3460034,51.1719632],[71.3454283,51.1723291],[71.3443983,51.1727704],[71.3430851,51.1731471],[71.342716,51.1732709],[71.3417376,51.1737552],[71.3410853,51.1740135],[71.3403128,51.1742126],[71.3393686,51.1743041],[71.33840730000001,51.1743364],[71.3374804,51.1744009],[71.3366237,51.174186],[71.3364085,51.1742959],[71.3361071,51.1743202],[71.335859,51.1743593],[71.3354204,51.1742825],[71.3350722,51.1742766],[71.334464,51.1742632],[71.3342458,51.1742352],[71.3339745,51.1741316],[71.3334721,51.1737982],[71.3330485,51.1734978],[71.332738,51.1731604],[71.3323709,51.1730093],[71.3319467,51.1729151],[71.331086,51.1726789],[71.3309715,51.1730566],[71.3309452,51.17354429999999],[71.3305299,51.1738708],[71.3299301,51.1740939],[71.3296664,51.1742179],[71.32890180000001,51.1742551],[71.3283943,51.174222],[71.3282427,51.1742799],[71.3277088,51.1746725],[71.3269771,51.1753543],[71.326753,51.1756808],[71.3270496,51.1760072],[71.327544,51.1763048],[71.32762310000001,51.1767469],[71.3274451,51.1772676],[71.3271117,51.1775274],[71.3265711,51.1778166],[71.3256342,51.1777991],[71.3249817,51.177767],[71.3244597,51.1777202],[71.323947,51.1775653],[71.3236953,51.1773287],[71.323672,51.1771592],[71.3235975,51.1769722],[71.3235322,51.1768612],[71.3233877,51.1767764],[71.3232293,51.1767121],[71.3230568,51.1766888],[71.322889,51.1767092],[71.3225391,51.1768091],[71.3220052,51.1768958],[71.3218404,51.1769826],[71.3216756,51.177181],[71.321557,51.1773876],[71.3214845,51.1776355],[71.3214054,51.1777636],[71.3211747,51.1778504],[71.3209176,51.1778876],[71.3207463,51.1779],[71.3206276,51.1779],[71.3205419,51.1778339],[71.3204694,51.1777099],[71.3204299,51.1775901],[71.3203574,51.1774578],[71.3202453,51.1773793],[71.3201267,51.1773215],[71.3199619,51.1772843],[71.3198103,51.1772884],[71.3196257,51.1773504],[71.3195334,51.1774578],[71.3194741,51.1775405],[71.3194016,51.1776396],[71.3192764,51.1777223],[71.3190523,51.1778793],[71.3187425,51.1780611],[71.3183931,51.178214],[71.3182217,51.178276],[71.3180504,51.1782471],[71.3178394,51.1780921],[71.3176615,51.1779578],[71.3175758,51.1779454],[71.31741760000001,51.1779289],[71.3173451,51.1779785],[71.3173385,51.1780901],[71.317378,51.1782223],[71.3173451,51.1783752],[71.3172528,51.1784619],[71.3170603,51.1785805],[71.3166693,51.1786876],[71.3161531,51.178778],[71.3158191,51.1788327],[71.3155117,51.1789065],[71.3152801,51.1790588],[71.3152649,51.1792253],[71.3152498,51.1793491],[71.3151549,51.1795727],[71.3149309,51.1797607],[71.3147374,51.1798583],[71.314392,51.1798678],[71.3141187,51.1798107],[71.3139479,51.1797488],[71.3137201,51.1796798],[71.3134658,51.1796346],[71.3132495,51.1796465],[71.3129496,51.1796536],[71.312794,51.1796084],[71.3126687,51.1795727],[71.3125473,51.1795704],[71.3123803,51.1794966],[71.3120804,51.1794371],[71.3118375,51.1794228],[71.3115794,51.1794109],[71.31142,51.17943239999999],[71.3113061,51.179518],[71.3113327,51.179637],[71.3115338,51.1797797],[71.3116629,51.179863],[71.3117122,51.1799356],[71.3116667,51.1800106],[71.3114086,51.1800105],[71.3111771,51.1799677],[71.3109,51.1799653],[71.3107861,51.180001],[71.3104597,51.1800772],[71.3103002,51.1800915],[71.310194,51.1800296],[71.3101579,51.1799511],[71.3100877,51.1798797],[71.3099852,51.1798654],[71.3098638,51.1799297],[71.3098372,51.1799856],[71.3097917,51.1800486],[71.3097157,51.1800891],[71.3095943,51.1801414],[71.3095108,51.1801795],[71.3094083,51.1802675],[71.3093855,51.1803865],[71.3093817,51.1804745],[71.3093589,51.1805959],[71.3093248,51.1807291],[71.309302,51.1808433],[71.3092565,51.1809623],[71.3092944,51.1810646],[71.3093703,51.1811896],[71.3094766,51.1812954],[71.3094842,51.1813763],[71.309488,51.1814643],[71.30945,51.1815333],[71.3093703,51.1815643],[71.3092679,51.1816118],[71.3091122,51.1816666],[71.3088845,51.1816904],[71.308763,51.181688],[71.3086719,51.1816594],[71.3085049,51.1816047],[71.3083341,51.1816142],[71.3082089,51.1816475],[71.3080874,51.1817332],[71.3080001,51.1818617],[71.30797160000002,51.1820069],[71.3079432,51.1821377],[71.3078711,51.1822209],[71.3077914,51.1822566],[71.3075907,51.182316],[71.3072096,51.1823496],[71.3070324,51.1823429],[71.3067426,51.1822756],[71.3062917,51.1821074],[71.3056241,51.1820071],[71.305213,51.1819986],[71.3044311,51.1821264],[71.3028875,51.1823899],[71.3010178,51.1829548],[71.2991516,51.1832579],[71.2972705,51.1856596],[71.2969975,51.1868307],[71.295635,51.1876735],[71.2936957,51.1883776],[71.2921001,51.1891863],[71.2899896,51.1892443],[71.2862313,51.1890722],[71.279834,51.1883187],[71.2756612,51.1884707],[71.2731996,51.1883903],[71.27308967911283,51.18826973877094],[71.27307459917407,51.18825319842967],[71.2730670977674,51.18825079850204],[71.2728831,51.1881919],[71.2726565,51.1881944],[71.2721173,51.188263],[71.2720626,51.1881846],[71.2718829,51.1881209],[71.27187827995621,51.18811325659957],[71.27182040741059,51.18801747356479],[71.27186152547849,51.1878707963085],[71.27189851461844,51.187738927794136],[71.2720094933001,51.187640912155906],[71.27200949250997,51.18764090661282],[71.2720095,51.1876409],[71.2719767,51.1874108],[71.27197669061901,51.18741079210003],[71.27197668867599,51.1874107784692],[71.27171888807109,51.18719367731895],[71.27145058782847,51.18709347685733],[71.27117706853095,51.18703164170956],[71.2709863,51.1869885],[71.2705581,51.1868347],[71.2701776,51.1866665],[71.27010952600718,51.18662438888654],[71.27003678153892,51.18657936489697],[71.26988449503646,51.18648158612753],[71.2698494,51.1863835],[71.2698655,51.1863111],[71.270031,51.1861811],[71.27008991094125,51.18601491117064],[71.2700919006821,51.18600930129716],[71.27014331554969,51.18575052956793],[71.27014497131731,51.18570370311547],[71.2701483,51.1856105],[71.27008274026603,51.185471354782926],[71.27008051586085,51.185466630159745],[71.27008051115065,51.18546662366633],[71.2700805,51.1854666],[71.27004011198274,51.18541093003026],[71.27001389878815,51.18537479294638],[71.2699998804177,51.18529319798154],[71.2699721203974,51.18513153878701],[71.2699663902237,51.18506833559979],[71.2699641,51.185043],[71.269987866618,51.1849573820306],[71.26999680467932,51.184925208897816],[71.27003016661226,51.184875949436304],[71.2700615,51.1848297],[71.270307,51.184689],[71.2705087,51.1846532],[71.27060401870379,51.1846441737866],[71.27071041636395,51.18463413111707],[71.27079872159669,51.18460102775248],[71.2708474,51.1845828],[71.27092432620397,51.18451556010289],[71.27092920057139,51.184511301086594],[71.27093008722689,51.18450497674807],[71.2709418,51.1844215],[71.2708302,51.1842501],[71.27077534944048,51.18416351994672],[71.27070849860749,51.18405799533606],[71.2706647,51.1839113],[71.27066469154889,51.18391128954431],[71.27066468766981,51.18391127655265],[71.27060455309687,51.183836886445995],[71.27059050227065,51.18381950280924],[71.27057330301439,51.183744293847326],[71.27058627187972,51.183717823149586],[71.27061711384226,51.18365492632303],[71.2706596853807,51.18361264076554],[71.2707085,51.1835642],[71.2708378,51.1834533],[71.27091774145944,51.18346769112642],[71.27103001480495,51.183487928154015],[71.2711095966545,51.18357133594189],[71.2711461,51.1836096],[71.2712584,51.1837479],[71.2713269,51.18383739999999],[71.2714391,51.1839471],[71.27145311773081,51.1839540921378],[71.27152291210865,51.18398892302572],[71.27173980274826,51.18399360522598],[71.27197191218919,51.18397222317907],[71.27217361251803,51.1839054238045],[71.27223323409434,51.183858211998604],[71.2723183,51.1837909],[71.27241666755928,51.183742085595945],[71.27249141356609,51.183705025797444],[71.272524289435,51.183676454452645],[71.2725656,51.1836406],[71.27256777150008,51.18360934463821],[71.272571736583,51.183552776494],[71.27246668790761,51.183419998681416],[71.2724572,51.183408],[71.2722212,51.1832446],[71.2721406715052,51.18320126443326],[71.27200619079873,51.18312888250222],[71.27188629657192,51.183075193481066],[71.27179689389604,51.18301557885867],[71.2717903751489,51.182993000906336],[71.27177770830511,51.18294908675988],[71.2717868279586,51.1828512105128],[71.2717893,51.1828247],[71.27180316992822,51.1828054247626],[71.27187680863663,51.18270311642397],[71.27196501185006,51.182618350389795],[71.2721698,51.1824216],[71.2722897,51.1822272],[71.2724438,51.1820769],[71.2725371,51.1819457],[71.2726722,51.1818407],[71.27282191541792,51.18171763199657],[71.27287390701004,51.181674913331356],[71.27292308317934,51.18159996425466],[71.2729671,51.1815329],[71.2731041,51.1814554],[71.27311464466781,51.181454498186554],[71.27331341488068,51.18143752829929],[71.27355701404132,51.18144712670314],[71.27370661705545,51.18147343647953],[71.2738348,51.181496],[71.2741975,51.1815865],[71.2743274,51.1816675],[71.2744229,51.1817252],[71.2744935,51.1817746],[71.2745405,51.1818414],[71.2745886,51.1819142],[71.2746338,51.1819714],[71.2746986,51.1820385],[71.274747762075,51.18206610913632],[71.27480901126907,51.18210052142968],[71.27492634754486,51.182157483172205],[71.274927,51.1821578],[71.2751648,51.1821948],[71.27523320558542,51.182194350702225],[71.27534750969116,51.18219361842919],[71.27543990994204,51.18218315957039],[71.2755378,51.1821721],[71.2756596,51.1821363],[71.2756962244091,51.182081046397464],[71.2757347265538,51.18202303166765],[71.27570721326238,51.18191362522033],[71.27564801672665,51.18178463180851],[71.27561366612429,51.18166039865764],[71.2757982059773,51.18158361136688],[71.2758720891063,51.18158497043165],[71.276057,51.1815884],[71.27617451171778,51.18159197223715],[71.2762149051412,51.18159320977682],[71.276241359923,51.18158202501326],[71.2762928,51.1815603],[71.27629278236648,51.18156028422265],[71.27629279555087,51.18156027864845],[71.27618829564963,51.18146679172686],[71.27609889769647,51.18140709478828],[71.27609845780847,51.18140609954168],[71.27606692480443,51.18133467902005],[71.276135,51.1812771],[71.27617916410964,51.18121477115144],[71.27621110503955,51.18116970958359],[71.27622945982681,51.181076612999526],[71.27619781778294,51.18093833381776],[71.2761978025374,51.18093831110508],[71.2761978,51.1809383],[71.2760361,51.1806974],[71.27598981625987,51.180620035208094],[71.27596759042416,51.180582881788816],[71.27592464947439,51.18054857339882],[71.2758914,51.180522],[71.2758895391264,51.18051902028339],[71.27585931545856,51.18047058871562],[71.27586280999168,51.18042503392619],[71.2758648,51.1803992],[71.2760037,51.1802966],[71.27612095253663,51.18024736589916],[71.27619971070872,51.18021432036522],[71.27627348809295,51.18019220233994],[71.276371,51.180163],[71.2764176775154,51.180176632451925],[71.27645661180055,51.18018802244168],[71.27650596162984,51.180220504330684],[71.2765708,51.1802632],[71.2766764,51.1803521],[71.27688217174982,51.180336915036534],[71.27700841460438,51.180327627773515],[71.27721960937187,51.18031451782259],[71.27725211097477,51.18033123745601],[71.27729378577054,51.180352692674326],[71.27729033351252,51.18037692556765],[71.2772851,51.1804135],[71.2771729650975,51.18064700767215],[71.27716249942307,51.18066879890275],[71.27712068294123,51.18081066755916],[71.27707308738795,51.180890576015884],[71.27706068734595,51.18112234191206],[71.2770766760783,51.18117342345053],[71.2770912,51.1812199],[71.2773053,51.1813105],[71.2774689,51.1813713],[71.2775942,51.1814036],[71.277722,51.181351],[71.2778501,51.1812238],[71.27785009724525,51.18122379485811],[71.2778501038126,51.18122378833754],[71.27779239999292,51.18111609996895],[71.27778263321605,51.18107329021212],[71.27775430143846,51.180949102735255],[71.277737103249,51.18076869120021],[71.277769,51.1806823],[71.27777485756832,51.18067311392507],[71.27788550941969,51.18049961791344],[71.27797161976204,51.180466580988096],[71.2780639,51.1804312],[71.27814612446001,51.18042094678073],[71.27827081530458,51.18040542910488],[71.27865142513133,51.180458218831355],[71.2786866,51.1804631],[71.278724087989,51.180475258746434],[71.27889780655397,51.180531612463646],[71.2790682148194,51.18059692818125],[71.27917462036909,51.18066403873483],[71.27926922122383,51.18075014306316],[71.2793275,51.1808032],[71.2794441,51.1809379],[71.2795533,51.1811137],[71.2797281,51.1811457],[71.2799393,51.1811205],[71.2800303,51.1811137],[71.2802088,51.1810817],[71.28025837924557,51.181040967934294],[71.2803786187208,51.18094223559938],[71.28070401393495,51.18070742649854],[71.28074685228174,51.180674059983],[71.280795,51.1806366],[71.280846,51.1805225],[71.28089519222871,51.1804300091802],[71.28090860253529,51.180404804821286],[71.28091539643407,51.18036059141953],[71.2809407,51.180196],[71.2809562,51.1801281],[71.28093310316046,51.18002431718132],[71.28092600972371,51.17999238783499],[71.28093210767703,51.17997267520694],[71.2809626,51.1798742],[71.2810288,51.1798315],[71.2813813,51.1796801],[71.28151655303652,51.17965817483811],[71.28180511039376,51.17961141976562],[71.28182830684219,51.17954152939969],[71.2818979,51.179332],[71.28189785386286,51.17933198582504],[71.28189785713938,51.17933197595294],[71.27355701691806,51.17676938568249],[71.2653832,51.1742581],[71.2576225082438,51.17527576747446],[71.25297500076991,51.17588519176035],[71.2541959,51.1628188],[71.2543440208847,51.15955860198171],[71.25440770190451,51.15815703933019],[71.25440769822171,51.15815703914088],[71.2544077,51.158157],[71.24276041578904,51.157558300811594],[71.24258150419868,51.15231110799751],[71.24258150026982,51.15231110791389],[71.2425815,51.1523111],[71.2406195896101,51.15226934995312],[71.23856369977858,51.15222559170832],[71.238494,51.1496155],[71.23849399240498,51.14961549980001],[71.2384939920035,51.1496154847661],[71.23615092424441,51.14955376700556],[71.23979662927673,51.13879538940977],[71.23969786136692,51.13853713575776],[71.2395817,51.1382333],[71.22589750453632,51.10382591286573],[71.22444141749844,51.10016473340795],[71.22444141191248,51.100164729952596],[71.2244414,51.1001647],[71.22193451133782,51.09861400701327],[71.22648564048689,51.092953581520355],[71.2422778,51.0733123],[71.24454309909157,51.070494812421316],[71.24610372137336,51.06855382389133],[71.24623375174126,51.06839207929332],[71.2463464,51.068252],[71.24791755223134,51.0684443877411],[71.24817490227002,51.06847590433803],[71.25082700342764,51.06803880654989],[71.25313610120315,51.06627490229883],[71.25395631171648,51.065082022391216],[71.25491591427439,51.06308672728114],[71.25541310343519,51.05980640656592],[71.2544105081908,51.05739521565823],[71.2545438716792,51.05631822482185],[71.2547052,51.0550155],[71.25514590198549,51.053956257428936],[71.25537850522906,51.05339720999742],[71.25433331397625,51.050903726725025],[71.25416420765424,51.04951134320214],[71.2541502,51.049396],[71.25431005828518,51.04926892822726],[71.2568104181103,51.04728143463346],[71.26165671114103,51.04456442130675],[71.26311130891439,51.04243071704945],[71.26530973004972,51.041235562909286],[71.2659097,51.0409094],[71.26619324668967,51.04070702161587],[71.26771331304143,51.039622124944046],[71.26843206911877,51.037573386376486],[71.2693186,51.0350465],[71.27030933834604,51.03391535817442],[71.27038270119104,51.03383160227832],[71.27075183563315,51.033581299693324],[71.2760821,51.029967],[71.27935733670644,51.026717994958794],[71.27969050174913,51.02638750334677],[71.28044008010164,51.02599632078506],[71.2847901,51.0237262],[71.2866187,51.0224236],[71.28815129257144,51.02197992576557],[71.28953761645795,51.021578631491714],[71.29080431705151,51.02172773262674],[71.29935994577822,51.0224195236454],[71.3030227,51.0227157],[71.3046043790109,51.022549339087185],[71.30782971488985,51.022210128482975],[71.3123601041001,51.023313107842306],[71.31847371250369,51.023746923913535],[71.33174591881654,51.02147413598355],[71.33553741715622,51.019093132809836],[71.35873292216036,51.01591714592735],[71.3801142,51.0129896],[71.38044635163016,51.01298116328707],[71.38087013896255,51.012970438107565],[71.3809658,51.013064],[71.3801494,51.0225134],[71.3815018,51.029868],[71.3926426,51.063065],[71.3982282,51.0766895],[71.4114417,51.1116876],[71.413448,51.1251801],[71.4142222,51.1337765],[71.4164002,51.1380377],[71.4230907,51.1475369],[71.4248049,51.1491419],[71.4279034,51.1521741],[71.4274961,51.152501],[71.4263374,51.1553543]]]}},{"type":"Feature","properties":{"KATO":"711610000","ADM1_EN":"Astana","ADM1_KK":"Астана","ADM1_RU":"город Астана","ADM1_PCODE":"KZ71","ADM2_EN":"Saraishyk","ADM2_KK":"Сарайшық ауданы","ADM2_RU":"район Сарайшық","ADM2_PCODE":"KZ711610","type":"named_district"},"geometry":{"type":"Polygon","coordinates":[[[71.5328273,51.1028375],[71.53872,51.102232],[71.5508761,51.1009828],[71.5877938,51.0971889],[71.5992148,51.0941028],[71.6017806,51.0931978],[71.604,51.092415],[71.6053962,51.0921344],[71.6065449,51.0916804],[71.6078805,51.0913234],[71.6082702,51.091386],[71.6149137,51.0995016],[71.635347,51.0946878],[71.6439047,51.0927505],[71.651533,51.0910235],[71.6586566,51.0894191],[71.6743929,51.0863096],[71.6788304,51.0854391],[71.6803914,51.0905816],[71.6815755,51.0912191],[71.6830966,51.0917001],[71.6843158,51.0915963],[71.6851205,51.0920814],[71.6846323,51.0927014],[71.6853619,51.0932371],[71.6862845,51.0930551],[71.6869175,51.0932135],[71.6872858,51.0915136],[71.6883588,51.0914959],[71.68909859318403,51.092142960924974],[71.68865960176555,51.09267060334997],[71.68900530629799,51.09280882882008],[71.6888447,51.0931305],[71.6889119,51.0932591],[71.690407,51.0928492],[71.6913968,51.0930265],[71.6918371,51.0932408],[71.6915571,51.0938635],[71.6923115,51.0939143],[71.6940646,51.0937395],[71.6943983,51.0928064],[71.6947764,51.0925851],[71.6950956,51.0925801],[71.6955999,51.0928614],[71.6958146,51.0925313],[71.69579641412454,51.09241883777224],[71.695879016964,51.092406632184876],[71.6957780984135,51.092305572635745],[71.6957206,51.09195],[71.6949159,51.0913907],[71.69484268944366,51.09136885675679],[71.69465791019479,51.091183819343094],[71.69558358761667,51.090827193396784],[71.6958876,51.0908021],[71.69587519203984,51.090714850045956],[71.69588490436473,51.090711108281305],[71.69632403750244,51.08938519662852],[71.69650613399405,51.08930787585315],[71.69685378220412,51.0893226281021],[71.6972333,51.0894921],[71.6992172,51.0894696],[71.7003864,51.0907848],[71.7007305,51.0921224],[71.7023974,51.0928702],[71.7037699,51.0926323],[71.7049593,51.0925793],[71.7069257,51.0925643],[71.70732562016484,51.092632411187274],[71.70864428528992,51.09319207209743],[71.70878250036989,51.09400310070153],[71.70878707401826,51.094007333084605],[71.7087959,51.094089],[71.7092126,51.0946729],[71.7099098,51.0954757],[71.7098384,51.0959783],[71.7093676,51.0962288],[71.7087346,51.096358],[71.7081032,51.0961023],[71.7075501,51.0960685],[71.7065974,51.0968208],[71.7073418,51.0971946],[71.7083224,51.0976838],[71.7095293,51.0979671],[71.71088402590603,51.098554539396524],[71.71096278907899,51.098598879289455],[71.71099680544245,51.09860344312128],[71.7110057,51.0986073],[71.7111681,51.0986792],[71.7128101,51.0991299],[71.7142179,51.0995213],[71.7163215,51.0995618],[71.717602,51.0995875],[71.7176841760845,51.0995262540632],[71.71799079267089,51.09955798610309],[71.72002148193995,51.10018696575786],[71.7203611832292,51.10030436820258],[71.72056209767402,51.10037379559002],[71.72076101103586,51.100442520923345],[71.72113299205813,51.100591984942554],[71.72247902130687,51.101424800161396],[71.7227033,51.102348],[71.72306163545908,51.10255115236901],[71.72327188055199,51.1030233631321],[71.72443430440657,51.10342050835347],[71.72467227682178,51.10341168390704],[71.7250338,51.1034959],[71.7257194,51.1036668],[71.7273985,51.1036122],[71.7282381,51.1032912],[71.7289029,51.1030476],[71.7289442,51.1021798],[71.7289545,51.1014571],[71.7289712,51.1008763],[71.72899529876409,51.10080759499323],[71.72941619217299,51.100270135214934],[71.7294212,51.1002654],[71.7300754,51.0996412],[71.73048511667189,51.09924762512052],[71.73112700859049,51.098890316285846],[71.73151769894574,51.098767298001285],[71.73166944163938,51.0986921325252],[71.7325339,51.0985819],[71.73323,51.0980539],[71.734044,51.0974205],[71.7344627,51.0971761],[71.7352557,51.0967055],[71.7365773,51.0967458],[71.7378849,51.0970441],[71.73907105568725,51.09760969531851],[71.7391458176557,51.09800633346938],[71.73852480319265,51.098626806052046],[71.7388271708822,51.09922766069438],[71.7388422,51.0992844],[71.738888,51.0995487],[71.73892601873581,51.09962904853642],[71.7389684836957,51.100161769094775],[71.7393136573265,51.10044828128463],[71.7394674,51.1007732],[71.7402302,51.1013102],[71.7413118673361,51.1014082985615],[71.74188970453532,51.101520208595424],[71.74198279835234,51.10149597444196],[71.7419693,51.1015541],[71.74156453387413,51.10304885642953],[71.74102958147769,51.104198964897236],[71.71811509840082,51.108839959073066],[71.70448097726202,51.11162372668327],[71.70520245842943,51.11299257994015],[71.705114,51.1130112],[71.7020982,51.107675],[71.7004908,51.1081003],[71.6903532,51.1105638],[71.6894166,51.1107899],[71.6873959,51.1112748],[71.6859934,51.1116113],[71.6846705,51.1119287],[71.6840065,51.112088],[71.6836679,51.1121692],[71.6825158,51.112443],[71.6677293,51.1159565],[71.6659282,51.1164137],[71.664261,51.1168919],[71.6624008,51.1174369],[71.6584139,51.1185904],[71.6554396,51.1194233],[71.6480844,51.1213959],[71.6476755,51.1215121],[71.6458934,51.1219373],[71.6443125,51.1222548],[71.6380352,51.1234457],[71.6356706,51.1238873],[71.6335819,51.1242819],[71.6264865,51.1254959],[71.6253307,51.1256925],[71.6209446,51.1264419],[71.6199977,51.1265988],[71.615483,51.1273704],[71.612429,51.1278929],[71.6121622,51.127946],[71.6098034,51.1283408],[71.603312,51.1294466],[71.6030203,51.129496],[71.6007571,51.1298789],[71.6000757,51.1299731],[71.5992599,51.1301322],[71.5985169,51.1302474],[71.5940955,51.1309999],[71.5914616,51.1314754],[71.5911377,51.1315339],[71.5907737,51.1316012],[71.5904193,51.1316582],[71.5885188,51.1319542],[71.5776798,51.1338086],[71.5722742,51.134774],[71.5712655,51.1349507],[71.5700235,51.1351641],[71.5691449,51.1353139],[71.5682584,51.135465],[71.5672989,51.1356161],[71.5671188,51.1356437],[71.5661643,51.1357901],[71.5651939,51.1359091],[71.564507,51.1359969],[71.5638486,51.1360647],[71.5632592,51.136117],[71.5619012,51.1362192],[71.5610989,51.1362765],[71.5603177,51.1363002],[71.5589439,51.1363193],[71.5580051,51.1363149],[71.5578406,51.1363097],[71.5565686,51.1362894],[71.5548361,51.1362498],[71.5529538,51.1362111],[71.5518107,51.1361907],[71.5509683,51.1361755],[71.5501313,51.1361398],[71.5490314,51.13608],[71.5478093,51.1359875],[71.5464898,51.1358646],[71.5451281,51.1357629],[71.5446089,51.1357331],[71.5435717,51.1356928],[71.5431497,51.1356939],[71.5426484,51.1356932],[71.5423923,51.1356945],[71.5418263,51.1357016],[71.5410414,51.1357483],[71.5394127,51.1358451],[71.5388334,51.1359044],[71.5366578,51.1361675],[71.5351,51.1364292],[71.5334191,51.136767],[71.5323946,51.1370253],[71.53224,51.1370687],[71.5314022,51.1373038],[71.5302997,51.1376418],[71.529453,51.1379258],[71.528726,51.1381802],[71.528537,51.1382463],[71.5282512,51.138354],[71.5267998,51.1389007],[71.525745,51.1392981],[71.5244504,51.1398121],[71.5239956,51.139646],[71.5225328,51.1381165],[71.5219154,51.1374873],[71.5216587,51.1372257],[71.5215512,51.1371154],[71.5210586,51.1365921],[71.5209179,51.1364427],[71.5202979,51.1358661],[71.5200455,51.1356657],[71.5197718,51.1354935],[71.5194764,51.1353347],[71.5191972,51.1352118],[71.5187827,51.1350777],[71.5184145,51.1349727],[71.5176358,51.1347525],[71.5146778,51.1339159],[71.5143637,51.1338353],[71.5141883,51.1337829],[71.5132854,51.1335131],[71.5118235,51.1330764],[71.5105744,51.1327253],[71.5095424,51.1324483],[71.5056437,51.1312854],[71.5047728,51.131053],[71.5015417,51.1301579],[71.4982591,51.1292486],[71.4975152,51.1290553],[71.4973052,51.1290008],[71.4971563,51.1289634],[71.4970018,51.1289184],[71.4962778,51.1287073],[71.4960458,51.1286232],[71.4915237,51.1273671],[71.4912308,51.1272929],[71.491038,51.1272441],[71.4876496,51.1262133],[71.4870952,51.1260567],[71.486864,51.1259914],[71.4866995,51.1259499],[71.4864384,51.1258828],[71.4862203,51.1258268],[71.4856173,51.1256604],[71.4850606,51.1255301],[71.4845146,51.1254504],[71.4842296,51.1254324],[71.4838585,51.1254268],[71.4834057,51.1254504],[71.4816833,51.1257252],[71.481368,51.1257754],[71.4772463,51.1264047],[71.4768673,51.1264634],[71.4765866,51.1265069],[71.4763367,51.1265456],[71.4761116,51.1265854],[71.4752836,51.1267319],[71.4749192,51.1267967],[71.4731447,51.1270666],[71.471168,51.1273674],[71.4707984,51.127427],[71.470522,51.1274716],[71.4702537,51.1275148],[71.4699046,51.1275695],[71.4698699,51.1275764],[71.4685553,51.1277725],[71.465454,51.1282418],[71.4640039,51.1284694],[71.4638328,51.1284962],[71.4635832,51.1285354],[71.4601148,51.1290797],[71.4600483,51.1290901],[71.458548,51.1293256],[71.4584682,51.1293381],[71.4582067,51.1293858],[71.4580272,51.1294079],[71.4578732,51.1294324],[71.4555975,51.1298059],[71.4540016,51.130083],[71.447389,51.1311552],[71.4473624,51.1308902],[71.4473857,51.1307401],[71.447477,51.1305687],[71.4485116,51.1292935],[71.4487669,51.1290339],[71.4490455,51.1288197],[71.4509521,51.1277979],[71.4514617,51.1274884],[71.4520398,51.1270539],[71.4523692,51.1266553],[71.452558,51.1262178],[71.4525998,51.1257818],[71.4525506,51.1253446],[71.452322,51.1247561],[71.4520424,51.1243418],[71.451604,51.1239233],[71.4511571,51.1236282],[71.4505294,51.1233142],[71.4484086,51.1223913],[71.4478737,51.1222083],[71.4467888,51.1219146],[71.4465487,51.1218356],[71.4463977,51.1217326],[71.4463034,51.1215905],[71.4458328,51.1202597],[71.4458137,51.1201219],[71.4458502,51.1199958],[71.4459377,51.1198661],[71.4501125,51.1152037],[71.4504558,51.1124018],[71.4507562,51.1096805],[71.4511159,51.1088851],[71.4517862,51.1081986],[71.4539749,51.1070939],[71.4568931,51.10607],[71.4600688,51.1056119],[71.471656,51.1054502],[71.4727718,51.1051807],[71.4740163,51.1046688],[71.4745832,51.104208],[71.4753342,51.103367],[71.4757973,51.1028229],[71.4762783,51.1025148],[71.4769909,51.1022406],[71.4791492,51.1013947],[71.4802141,51.101018],[71.4832091,51.1006141],[71.4870608,51.1000456],[71.4897235,51.0996292],[71.4912642,51.1001942],[71.4923273,51.1006545],[71.4949974,51.1018192],[71.4980593,51.1031157],[71.4981437,51.1031514],[71.4991254,51.1034057],[71.500048,51.1035506],[71.5007883,51.1035868],[71.5014495,51.1035708],[71.5029609,51.1033266],[71.5074053,51.1021257],[71.5108399,51.1011859],[71.5128985,51.1008516],[71.5142664,51.100812],[71.5157068,51.1009341],[71.5174073,51.101276],[71.5189968,51.1017618],[71.5225384,51.102951],[71.5236837,51.103271],[71.5243569,51.1033687],[71.5251857,51.1034411],[71.5260413,51.1034478],[71.5276185,51.1034041],[71.5328273,51.1028375]]]}}]}